ONEWEB-0545             
1 54647U 22166F   25060.16345853  .00000103  00000+0  21812-3 0  9991
2 54647  87.9345 338.2827 0001688  99.3721 260.7604 13.21824163109489
ONEWEB-0580             
1 54648U 22166G   25059.53108301  .00000068  00000+0  13369-3 0  9994
2 54648  87.9351 338.3960 0001427  88.2887 271.8411 13.21825138108972
ONEWEB-0582             
1 54649U 22166H   25060.17923189  .00000136  00000+0  29903-3 0  9993
2 54649  87.9334 338.2929 0001318  92.6811 267.4474 13.21824516109502
ONEWEB-0583             
1 54650U 22166J   25060.26597100  .00000114  00000+0  24446-3 0  9998
2 54650  87.9350 338.2755 0001780  83.3726 276.7611 13.21824939109532
ONEWEB-0584             
1 54651U 22166K   25060.13507455  .00000014  00000+0  15430-5 0  9993
2 54651  87.9351 338.2803 0001358  84.0757 276.0531 13.21823491109492
ONEWEB-0585             
1 54652U 22166L   25059.70612330  .00000077  00000+0  15481-3 0  9997
2 54652  87.9341 338.3644 0001840  75.3367 284.7971 13.21823516108976
ONEWEB-0586             
1 54653U 22166M   25060.32432603  .00000189  00000+0  42735-3 0  9997
2 54653  87.9350 338.2558 0001726  84.2298 275.9033 13.21826302109524
ONEWEB-0587             
1 54654U 22166N   25059.27403387  .00000133  00000+0  29055-3 0  9996
2 54654  87.9348 338.4151 0001935  74.8526 285.2821 13.21824896109530
